category,fsq_id,name,latitude,longitude,address,PC6
Auction House,2fc06d5effb14f7d92e9a46e,Veiling Bloemen Online,52.0392,4.235123,,2544NG
Retail,528f3d9611d2905981d9b22f,070 Outlet Store,52.038549,4.240766,,2544NL
Sporting Goods Retail,4f2534e2e4b0d10db1404938,Ooms Sport De Uithof,52.03837,4.239861,Jaap Edenweg 10,2544NL
Retail,100ca3592b5d44c583347c72,Ooms Retail Groep B.V.,52.038812,4.241207,Jaap Edenweg 10,2544NL
Retail,b7036ffa23ed4887810c9085,Damara Kids,52.029745,4.245542,Abdis Eustachiastraat 15,2544NH
Grocery Store / Supermarket,9229d3a1741d4d2d8d4d8c6a,VIA Foodstore Verkoopkantoor,52.043163,4.243567,De Werf 15,2544EH
Hardware Store,4ddf9ca3d164da4f23311582,Bouwmaat De Werf,52.045325,4.248174,De werf,2544EH
Car Dealership,38aba6b75cc840cc4cf047b9,Black Bull Bedrijfsvoertuigen B.V.,52.045768,4.248825,De Werf 9,2544EH
Hardware Store,3fa2d85527574b8a08654d37,Bouwmaat in Den Haag,52.045269,4.248136,De Werf 9,2544EH
Retail,208c41fd22a5473e08bf5381,Star-Win Lighting And Building B.V.,52.044949,4.248005,De Werf 11,2544EH
Retail,3cc0563a2f474c722a1f56b5,BenSE-groep B.V.,52.045802,4.245891,Koperwerf 28,2544EC
Retail,e5196fd78d2741ecf1bffdf3,Glashandel Blom B.V.,52.045039,4.244761,Zinkwerf 55,2544EC
Home Appliance Store,03cbf623b38e458e8cff353e,Somarya,52.039657,4.250307,Randveen 60/U,2544RZ
Clothing Store,4cda9f2e9ff74e282f684b96,Sleep Time,52.040786,4.249772,Rietveen 4,2544RT
Bicycle Store,c1f9574bdcb541220b2da19e,Global Classics,52.040998,4.248091,Meppelweg 1468,2544CT
Automotive Retail,4f9bc62fe4b065054bc0179a,Olsthoorn bedrijfsvoertuigen. Mitsubishi Fuso TRUCKS,52.046202,4.247642,"Zichtenburg, Zinkwerf 14, 2544 Escamp",2544EE
Retail,3cf091a79dfc4b1221a022b7,VBT Groep BV,52.045599,4.250101,IJzerwerf 20,2544ES
Hardware Store,8721a4453e6f472edbde34e6,Mastermate,52.045557,4.250159,IJzerwerf 22,2544ES
Retail,abbe4886fdf84020be71ebc5,Procom Vijf BV,52.045375,4.250644,IJzerwerf 26,2544ES
Retail,ed4b4df13ef84a21a1f9db50,Houten Enveloppenkist,52.045347,4.250799,Merellaan 134,2544ES
Gift Store,eaf26a6fd31e406d1262874a,Koffertje&co,52.045292,4.250761,IJzerwerf 30,2544ES
Retail,cbfc88292c0546519ae103c8,Back Quality Europe (B.Q.E.) B.V.,52.044789,4.251809,IJzerwerf 46,2544ES
Car Dealership,33b2b23ae366405842bd8d9d,Lowland Cars,52.045974,4.250618,De Werf 10,2544EK
Print Store,359c84adc9a24a8e11716a1c,Just Inkt,52.045304,4.251552,IJzerwerf 38,2544EM
Office Supply Store,c78c00d1e4e54ed2ed68d66f,1NKT.nl,52.04504,4.251459,IJzerwerf 38,2544EM
Grocery Store / Supermarket,4cd3f3a9ecc3a09389fe9c93,Sligro Den Haag Zichtenburglaan,52.047797,4.250036,Zichtenburglaan 1,2544EA
Hardware Store,4f0418ff8b81d71b4c2bf5ce,Wilbrink Molenaar verf techniek,52.046905,4.250819,,2544EA
Print Store,dc970b0d33b84f6ba5f04972,Drukkerij Jobbe B.V.,52.047449,4.250407,Aartsdijkweg 95 Maasdijk Zuid-Holland,2544EA
Retail,0c24d4221992459b3e34b876,B.V. Ru'58,52.047226,4.250603,Zichtenburglaan 15,2544EA
Retail,c29e5d5952764d4c7f46f0cb,Simonis Verf BV,52.047086,4.251029,Zichtenburglaan 21,2544EA
Print Store,6baf206308e04bb03cad6aac,Het Haags Printhuis,52.046067,4.252682,Zichtenburglaan 31,2544EA
Vintage and Thrift Store,3e9db59189e54513848d7f78,Op Is Op Den Haag,52.046123,4.25272,Zichtenburglaan 31/A,2544EA
Hardware Store,212851b8239245b39239f263,Touchfix,52.046151,4.252565,Zichtenburglaan 31,2544EA
Automotive Repair Shop,4e01e05ac65b896d116ebf73,Autobedrijf Houtwijk,52.047726,4.250944,Zichtenburglaan 82,2544EB
Car Dealership,4e01e05ac65b896d116ebf73,Autobedrijf Houtwijk,52.047726,4.250944,Zichtenburglaan 82,2544EB
Furniture and Home Store,4ebbc5157ee5cb25a59b9a4b,I-Kook,52.048409,4.250106,Zichtenburglaan 16,2544EB
Liquor Store,0a1ae21f17624167588f56fa,Weterings Wijnen,52.047991,4.25069,Zichtenburglaan 52,2544EB
Retail,5bf4448c6a1a4516fb32e736,Sophia Keukens B.V.,52.047614,4.251216,Zichtenburglaan 150,2544EB
Flower Store,b29a010851c9416b883c6ec0,Belle Fleurria,52.048435,4.251341,Zichtenburglaan 64,2544EB
Retail,e3eac284b2fc448a9ed4b8f0,Groen Clean Produkten,52.046977,4.249911,Koperwerf 16,2544EN
Automotive Retail,4ee347332c5b5fc6cb3857b7,Ben Kaya Bandeservice,52.049185,4.25168,"Kerketuinen, Mangaanstraat 34, 2544 Den Haag",2544DW
Print Store,cbc3c62a19214a3649fac040,Matveld BV Drukkerij,52.049073,4.252299,Mangaanstraat 34/36,2544DW
Car Parts and Accessories,edf893f21de74d2b00091a3c,Benkaya Autobanden B.V.,52.048975,4.25232,Mangaanstraat 34-36,2544DW
Food and Beverage Retail,778251edc06344b810bf8b0a,Ideaal Import Export BV,52.037869,4.253957,Hogezijde 65,2543XR
Retail,720051784f58422c3e00cb10,Lillith's Orackle,52.03901,4.254213,,2543CN
Food and Beverage Retail,5d0a374547a34a31fafb9cdf,Openwest,52.040287,4.255781,Beresteinlaan 287,2542JH
Retail,4bf0672a707795213a613e7c,De Leerlooier,52.042087,4.25327,Beresteinlaan 165,2542JD
Home Appliance Store,549cac2064a24559f3081ea5,Lashay,52.043795,4.254697,Zonneoord 104,2544KH
Car Dealership,7646430fcf97408731cfe8b9,Sterling DAR,52.04389,4.255719,Vredeoord 157,2544TT
Automotive Retail,4be823f488ed2d7f9379cb1d,Volkswagen Wittebrug Den Haag,52.048037,4.252861,Kerketuinenweg 36,2544CW
Miscellaneous Store,5491a3bb498ec0f430df140a,medipoint Harting-Bank,52.048195,4.253178,Kerketuinenweg 130,2544CW
Car Dealership,4dccf6c381302fe12f998a2d,Motorhuis,52.047557,4.252221,Kerketuinenweg 70,2544CW
Automotive Repair Shop,51053b7fda534bea57a5e9a0,Wittebrug Autodealer Den Haag,52.048042,4.252813,Kerketuinenweg 36,2544CW
Car Dealership,51053b7fda534bea57a5e9a0,Wittebrug Autodealer Den Haag,52.048042,4.252813,Kerketuinenweg 36,2544CW
Automotive Retail,4df9fb50b0fb0401c7f6d13c,Ahz,52.048902,4.25427,Kerketuinenweg 26,2544CW
Automotive Repair Shop,4d47b0aa6db7236a2460cd97,Suzuki Den Haag,52.048583,4.253791,Kerketuinenweg 28,2544CW
Car Dealership,4d47b0aa6db7236a2460cd97,Suzuki Den Haag,52.048583,4.253791,Kerketuinenweg 28,2544CW
Car Dealership,3d1b0576e45c42c4ce9db647,Niham Personenauto Bv,52.04997,4.255783,Kerketuinenweg 26b,2544CW
Automotive Retail,53f633b5498ea7806773ce13,DAVO Centraal Magazijn voor Peugeot en Citroën,52.049955,4.256381,Kerketuinenweg 20,2544CW
Car Dealership,4bea6a9ca9900f47777c1640,Van Alphen,52.050359,4.256396,Kerketuinenweg 18,2544CW
Car Dealership,f40a94bb62b84d4c7a7bae63,Thg Kerketuinen Bv,52.050372,4.256492,Kerketuinenweg 18,2544CW
Hardware Store,4cfe368cd8468cfa7f9e046c,Mastermate,52.051513,4.257904,,2544CW
Automotive Retail,4e09aac914959022c8a4afa9,Holland Cars,52.051925,4.259293,Kerketuinenweg 4,2544CW
Automotive Repair Shop,4c8dbfd3daa937042adb46b1,Toyota Louwman Den Haag BV,52.050567,4.256799,Kerketuinenweg 16,2544CW
Car Dealership,4c8dbfd3daa937042adb46b1,Toyota Louwman Den Haag BV,52.050567,4.256799,Kerketuinenweg 16,2544CW
Print Store,e72d56e213f34f758b9fc408,Obt BV,52.051524,4.258235,Kerketuinenweg 8,2544CW
Car Dealership,0e8ce972f10a48357c9fb8fa,GIVA Den Haag BV,52.050622,4.256837,Kerketuinenweg 16,2544CW
Sporting Goods Retail,5a2e7fe6f427de1473de9e88,Demelinne Hockey,52.047996,4.255304,,2544EL
Construction Supplies Store,0bdfea28eb684d7916fa9991,Bouwmaat Den Haag,52.047565,4.255097,Zilverstraat 126,2544EL
Car Dealership,f1e147db7e3345d74d102f8c,Freddy 4 All About Cars,52.047996,4.255304,Zilverstraat 114,2544EL
Automotive Retail,4efc55859911cd89d0c9eae5,Procustoms,52.04923,4.257278,Zilverstraat,2544EL
Automotive Retail,4d3178595017a0930d823f9b,Kia Motors Dealer,52.049195,4.253861,Kerketuinen,2544CZ
Hardware Store,4e1b0447fa7652e581d7bd53,Haaglanden Rubber BV,52.049056,4.253593,Kerketuinenweg 67,2544CZ
Car Dealership,e33e9858ddad4ad9001fd4d4,Tieleman & Talen VOF,52.049292,4.253841,Kobaltstraat 8,2544CZ
Retail,484504380c4c4038cf95b92d,Speelplaatstegels.Nl,52.049098,4.253534,Kerketuinenweg 67,2544CZ
Vintage and Thrift Store,4bc049f874a9a59342e0cff6,Kringloop Holland Winkel,52.049421,4.2545,Kerketuinenweg,2544CV
Vintage and Thrift Store,517bcbe9498e199d3af5a22b,Schroeder Kringloop Holland,52.051248,4.257003,Kerketuinenweg,2544CV
Automotive Repair Shop,4d8cb0121d06b1f7a0a01e3b,Autobedrijf Roberts B.V.,52.052066,4.258171,Kerketuinenweg 15,2544CV
Car Dealership,4d8cb0121d06b1f7a0a01e3b,Autobedrijf Roberts B.V.,52.052066,4.258171,Kerketuinenweg 15,2544CV
Food and Beverage Retail,4d0f66f859606dcb8d606e3e,Menken Orlando BV,52.05104,4.2566,Kerketuinenweg 35,2544CV
Retail,0548901a88b24f4d57b6ba6d,Foodlink B.V.,52.051012,4.256407,Kerketuinenweg 35,2544CV
Retail,4bea82df9fa3ef3b8d2380c9,Avonturia De Vogelkelder,52.052621,4.258898,Kerketuinenweg 3,2544CV
Print Store,4ddb7933c65b7845ebf3b947,De Swart BV,52.049837,4.252734,Kobaltstraat 27,2544ET
Automotive Retail,5d510c9ee3f67200086d1682,Bosch Car Service,52.050293,4.255057,Chroomstraat 6,2544EX
Car Parts and Accessories,b104b066e4754acdb33a03de,Tieleman & Talen handelend onder de naam A&P Autoservice,52.049446,4.253511,Kobaltstraat 8,2544EV
Advertising Agency,52b19fe2498e00acc52b58db,Schneiders Printservice,52.050654,4.254597,Chroomstraat 15,2544EZ
Print Store,52b19fe2498e00acc52b58db,Schneiders Printservice,52.050654,4.254597,Chroomstraat 15,2544EZ
Miscellaneous Store,4d1c881c09546dcbf3dcd238,Winkels,52.050875,4.255444,,2544EZ
Print Store,fd01fd513f7f4f6ce29aa768,Belko Zeefdruk BV,52.049786,4.257657,Zilverstraat 66/68,2544EZ
Retail,f7896278803b45276cb8c4ce,Glow Specialist,52.049758,4.257465,Platinaweg 2,2544EZ
Automotive Repair Shop,fedf2bfaaf1d4fe4768220d4,Henny's Autoservice,52.052029,4.255797,Goudlaan 83,2544EG
Car Dealership,fedf2bfaaf1d4fe4768220d4,Henny's Autoservice,52.052029,4.255797,Goudlaan 83,2544EG
Retail,fff0d5837e4b447427eae8e4,Motorhuis Den Haag Goudlaan,52.051873,4.257517,Goudlaan 4,2544EG
Food and Beverage Retail,0a98946194234e091b45c69d,E & G Catering,52.052835,4.256174,Goudlaan 31,2544EG
Furniture and Home Store,5a3297abe6e04d30f1a7cfb2,Concurrent Meubelstoffeerderij De,52.030224,4.256652,Erasmusweg 2291,2542PR
Food and Beverage Retail,aebb3bc6476045713fdc828b,Taows,52.031638,4.259183,Riddersdreef 235,2542XV
Food and Beverage Retail,322dcde9a23540c8e010e313,Biologische Catering Pera,52.032807,4.259285,De Dreef 131,2542ND
Grocery Store / Supermarket,df7df8b9cbed492bf17de030,Eten is natuurlijk,52.035151,4.256363,Melis Stokezijde 234,2543GP
Clothing Store,89a172e79498474e1f50e1f1,Tradera Enterprise,52.035151,4.256363,Melis Stokezijde 240,2543GP
Print Store,427c6c14c289434b0a78b33b,D.a.b. Drukwerk Advies Buro,52.035444,4.255954,Melis Stokezijde 227,2543GN
Grocery Store / Supermarket,4dab15c2cda1652a2b9af9b7,Deniz Supermarkt,52.039644,4.256908,Beresteinlaan 465,2542JL
Drugstore,4dec7fd5922ec86a548c484a,Apotheek Berestein,52.039952,4.256248,Beresteinlaan 395,2542JK
Retail,e83110a2b5854bbf7127716f,Anita's Wol,52.039947,4.258333,Winkelstede 124,2543BT
Furniture and Home Store,f549958245b64e5822396271,Kraay Interieurlook,52.04013,4.257501,Winkelstede 189,2543BN
Tobacco Store,24fcd93f9c0548073bbb3f06,Tabakshop Winkelstede,52.040199,4.257635,Winkelstede 171,2543BN
Grocery Store / Supermarket,7a5aec618db34c24efe6ef59,Ceyhan Lar,52.039755,4.256984,Beresteinlaan 465,2542JM
Drugstore,546c8b0b498e6272a275079b,Apotheek Bouwlust,52.042009,4.257305,Zonneoord 288 A,2544KM
Retail,4ddab9bcc65bee535b003d37,Huisartsenpraktijk Zonneoord,52.042121,4.257033,Zonneoord 288 H,2544KM
Grocery Store / Supermarket,5220bfa111d2113dce68eab8,Marjane Mobarik,52.040842,4.256508,,2544GT
Flower Store,e805fd9721d6430bbbf51603,Shanaja,52.040828,4.256412,Hengelolaan 1150/C,2544GT
Grocery Store / Supermarket,568a4f56498e219356416628,Groszek XL BV,52.040702,4.256587,Beresteinlaan 2,2544GS
Car Dealership,4e48ca36672342ec06cc7595,Himas Auto Export,52.041688,4.257869,Hengelolaan 1024,2544GM
Grocery Store / Supermarket,4d2afcb28e102c0f9c43d16e,Lidl,52.044091,4.259597,De Stede 23,2544VE
Fish Market,520647ae11d2fe447e993fd3,De complete vishandel,52.043924,4.25983,De Stede 21,2544VE
Food and Beverage Retail,c769379e5c134492293f13f8,Fastfood Bezorging,52.044329,4.25915,Eekhoornrade 144,2544VE
Grocery Store / Supermarket,4b9b8ba1f964a520610e36e3,Jumbo,52.043645,4.259988,De Stede 21,2544VE
Shopping Mall,590d9cdfb3d8e26879d8a9c0,winkelcentrum De Stede,52.043989,4.260097,,2544VE
Clothing Store,4e5e1bf81fc724eac4c0e640,Zeeman Textielsupers,52.043926,4.258788,De Stede 27,2543BG
Bookstore,5ba9e89b60255e002c1a1c13,Primera De Stede,52.043619,4.259101,De Stede 30-31,2543BG
Butcher,4d2846cd888af04d0a29c4af,Halal Slagerij Marakesh,52.043995,4.258922,De Stede 28,2543BG
Drugstore,4d2889c7b818a35d6f19968a,DA Drogisterij Van t Hof,52.043354,4.259355,De Stede,2543BG
Retail,768e2a776c9c4164fb5ba305,Den Haag Stede,52.043995,4.258922,De Stede 27,2543BG
Baby Store,ad44c125c8e14fa081980238,Zeeman in Den Haag,52.043995,4.258922,De Stede 27,2543BG
Grocery Store / Supermarket,bd0e21198c584abc586f12e6,Lidl in Den Haag,52.043966,4.259425,De Stede 23-25,2543BG
Grocery Store / Supermarket,7e6b189e20c147bb3fb0b6be,Stokrotka Den Haag,52.042404,4.261489,De Stede 3,2543BG
Baby Store,67cbe121608c42127aab0d29,Wibra in Den Haag,52.042584,4.261699,De Stede 6,2543BG
Grocery Store / Supermarket,4c0674435753c92854e63af1,Albert Heijn,52.042989,4.261019,De Stede 10,2543BG
Drugstore,52a898fa11d28f1470eaca90,Kruidvat,52.043115,4.260844,De Stede 12,2543BG
Grocery Store / Supermarket,523588e711d2188c5e95dd36,Supermarkt de Stede,52.043198,4.260727,De Stede 16A,2543BG
Antique Store,4deb9608ae60e9892375f7ce,Diversitijd,52.043351,4.261092,,2543BG
Grocery Store / Supermarket,4ad14f028b0b4d0405814dc9,M & R Supermarkt,52.044445,4.256446,Bouwlustlaan 99,2544JP
Grocery Store / Supermarket,2d343a0041eb4df215ce03ae,Pewex,52.044515,4.256233,Bouwlustlaan 97,2544TX
Drugstore,7ef89e0e4b1749871e7ea90b,Apotheek Bouwlust,52.046862,4.258618,Wezelrade 186,2544XE
Cosmetics Store,4e8bfc10b8f7a1fe8dca60fa,Thermopreen,52.050466,4.258557,Zilverstraat 31,2544EJ
Car Parts and Accessories,57b320b584b643c09f19118e,ASD The Car Hifi Specialist,52.04998,4.257964,Zilverstraat 39,2544EJ
Shopping Mall,5180385c498e448ef7a40602,Centro Oberhausen,52.032274,4.261183,,2542NL
Food and Beverage Retail,963589425e8b494ea7288546,L'Ambiance Buffet,52.031689,4.261306,Schoutendreef 330,2542LV
Grocery Store / Supermarket,10662debb53e419c81db7055,Supermarkt Hogeveld,52.032678,4.261198,Pachtersdreef 184,2542XN
Food and Beverage Retail,f79d1afc63e64ba8c999432e,Ay Global Green BV,52.033454,4.262771,Pachtersdreef 100,2542XK
Retail,47d94ace05d248d2593fae83,Eurovloeren,52.035052,4.263428,Rijndijk 2 G Hazerswoude-Rijndijk Zuid-Holland,2542JX
Clothing Store,cbbef26e4a0947adf8780a91,Jabbar Trading,52.036681,4.263235,Wolweversgaarde 839,2542BH
Flower Store,5e9abe9d09b142731de6e99a,El Fathi Installatietechniek,52.03961,4.26019,Woonstede 27,2543VM
Home Appliance Store,64bc25f6fd504931d8acf07f,Azghay Mohamed,52.03954,4.260056,Woonstede 33,2543VM
Grocery Store / Supermarket,510a4b56e4b0ee1343ad7df7,Aldi,52.041219,4.262333,Langestede 4-6,2543TS
Wine Store,4dce7ed145ddbe15f8899a0f,Gall & Gall,52.04093,4.261005,De Stede 35,2543TG
Car Dealership,5c45ab5e170848e56b9d4f37,Car Fit-First,52.041647,4.26393,Vrederustlaan 73,2543SL
Department Store,4dff579118a8d4e888af47c3,Wibra De Stede,52.042738,4.261369,De stede,2543BA
Retail,11079499aacd4b35dd7cc1df,Opvang De Droomtuin,52.043638,4.263463,Het Zicht 5,2543AJ
Food and Beverage Retail,1953e095d4024cdc098651a0,Wahida Catering,52.046132,4.261947,Hertenrade 213,2544HG
Hardware Store,4cca9507b7d9a1435591fd36,Bouwmaat Zichtenburg,52.047271,4.261459,,2544MJ
Health and Medicine,4cd10d867561236a04bc2ff3,FysiOK,52.047525,4.261159,Wezelrade 192-194/ Europaweg 151,2544MJ
Drugstore,4cd10d867561236a04bc2ff3,FysiOK,52.047525,4.261159,Wezelrade 192-194/ Europaweg 151,2544MJ
Car Dealership,e899f48af8024f53aafae07b,BR Auto Import & Export,52.048111,4.259994,Wezelrade 27,2544VV
Retail,e1cd6a4be313479c279b6cdd,Heijmans Metaalbewerking,52.050991,4.260134,Zilverstraat 22,2544ER
Retail,806d81d1e65345a0f2eeb131,AHZ/Hagaziekenhuis LE,52.0557,4.263959,Leyweg 275,2545AV
Eyecare Store,4f991d56e4b0eee8ce42c03b,Oculenti Haga,52.056324,4.264821,,2545AV
Retail,415f2538ff8d42cad42103ee,Spoed Apotheek Samenwerkende Apotheken Leyweg B.V.,52.055727,4.264152,Leyweg 275,2545AV
Retail,602ee836c2834af656ce9978,Samenwerkende Apotheken Regio Den Haag B.V.,52.055727,4.264152,Charlotte Jacobslaan 10,2545AV
Convenience Store,6006e858f1b7397aa474e9e6,Spar city Leyenburg,52.05673,4.263445,Els borst-eilersplein 292,2545AA
Eyecare Store,5ba545f6c21cb1002c27fe18,Oculenti Contactlenspraktijk Hagaziekenhuis loc Leyenburg,52.05652,4.264343,Els Borst-Eilersplein 275,2545AA
Shopping Mall,5456bd28498eefcc84bacd8d,Beril Butik,52.033697,4.265895,Hobbemastraat,2542JV
Shoe Store,5aea240412f0a9002cd41530,Ayakbasi,52.033032,4.264745,,2542LN
Mattress Store,5aeb6f223ba767002c60d75e,Yatak Magzasi,52.032976,4.264707,,2542LN
Shopping Mall,5aea2922ca18ea002cdf39fc,Forum Bornova,52.032893,4.264476,,2542LN
Vintage and Thrift Store,5ae8da1de4c459002c7fac93,Ikinci El,52.03452,4.26455,,2542XH
Car Dealership,6bc7950880ae4ab5ab087a59,Pasa Cars,52.034307,4.267008,Bierbrouwersgaarde 22,2542HN
Department Store,518a684b498e875d309566ed,Action,52.035644,4.266876,Ambachtsgaarde 6,2542CV
Discount Store,518a684b498e875d309566ed,Action,52.035644,4.266876,Ambachtsgaarde 6,2542CV
Tobacco Store,664a0d6660f1491c087779fa,Sigarenmag Adriana,52.035504,4.266955,Ambachtsgaarde 12,2542CV
Grocery Store / Supermarket,4d7ce9f15a396dcb14e07dfb,Albert Heijn,52.034825,4.265708,Ambachtsgaarde 162,2542EJ
Liquor Store,4f244ac6e4b0b653a36c0d96,D & D Slijterij,52.034908,4.265939,Ambachtsgaarde 118,2542EJ
Shopping Mall,5a88241731fd140cc5915ddd,Winkelcentrum Ambachtsgaarde,52.035226,4.265692,Ambachtsgaarde,2542EJ
Drugstore,51e8dd18498ee964305a8bce,Kruidvat,52.035104,4.265203,Ambachtsgaarde 182,2542EZ
Tobacco Store,4c334f88ed37a593c01a6d03,Primera,52.034969,4.267216,,2542HH
Fruit and Vegetable Store,39fb7158ced1459047e590c1,Borsboom Groente en Fruit,52.035171,4.26638,Ambachtsgaarde 80,2542EH
Grocery Store / Supermarket,b30af203372a44cdda4264f2,Pewex,52.035271,4.2672,Ambachtsgaarde 20,2542EE
Vintage and Thrift Store,2e6953fb7b7f4b9971f47d11,Eurotje Kringloopwinkel,52.035295,4.267247,Ambachtsgaarde 20,2542EE
Bicycle Store,fbaa937cc8354b5177b74d3a,Fietsparadijs,52.035156,4.267326,Ambachtsgaarde 22,2542EE
Food and Beverage Retail,f6c9b3a582a1440772013887,Welcom Horeca,52.03492,4.26673,Wantsnijdersgaarde 493,2542GL
Retail,d062361d61e14d28bba5c253,Mandala Beauty,52.035003,4.266961,Wantsnijdersgaarde 461,2542GL
Bookstore,763587750da14ab9f9d38060,Bruna,52.036421,4.267755,De Gaarde 466,2542CP
Children's Clothing Store,41b97f1e5f2046bb87569f57,Kids Ecowear,52.03514,4.267925,Wantsnijdersgaarde 202,2542HE
Shoe Store,4f7cfc14c7ed4a1f424237b1,Taptik Verkeersschool Turbo M A C,52.037637,4.265019,Wolweversgaarde 683,2542BE
Home Appliance Store,95542110fb184eba5af2a164,FSS Dienstverlening BV,52.037136,4.265373,Drapeniersgaarde 141,2542VN
Retail,87195fd14354452c808bc958,Drinkie Winkie B.V.,52.038636,4.266745,Wolweversgaarde 531,2542BB
Food and Beverage Retail,bc76c5fc98f948dc5daf35b0,Bouyaouzan-van Reeuwijk J,52.039482,4.268106,Melis Stokelaan 2014,2541GE
Vintage and Thrift Store,c857ac1fb9e44cffedae6990,Bouwlust Electronica & Witgoed,52.043092,4.264917,Het Zicht 96,2543AP
Vintage and Thrift Store,4c0c30884bce46ecc6e08a96,De Kleine Beurs,52.04326,4.264684,Het Zicht 78,2543AN
Grocery Store / Supermarket,40c66638822d424fcf65179c,Zicht VOF Supermarkt Het,52.043302,4.264625,Het Zicht 60,2543AN
Furniture and Home Store,f021ae2ab5fa416c62452efb,Woonvorm Kasten op Maat,52.043385,4.264508,Het Zicht 58,2543AN
Retail,e426155ec9754d70f8b572fd,Geschikt Groen Geschikt,52.042675,4.264806,,2543AK
Grocery Store / Supermarket,929c6280a41c419ce7c8279a,Bagdad Buurtwinkel,52.048011,4.268103,Hengelolaan 413,2545JN
Grocery Store / Supermarket,b183a72db76044b902887039,Thuismarkt Zuidlarenstraat,52.050061,4.265936,Zuidlarenstraat 189,2545VT
Home Appliance Store,e0a7c540cde64e92e44d7870,Farshad Reza,52.051285,4.266077,Meppelweg 676,2544BN
Food and Beverage Retail,c2f9f30be15b4e114c940d0b,CML Products,52.052638,4.264304,Henriëtte van Soelenlaan 15,2545EV
Drugstore,4e2a829018387cce06689749,Apotheek Leyweg,52.055122,4.267318,Leyweg 555,2545CJ
Drugstore,506ef2a8e4b0258b1f36be84,Leyenburg Apotheek,52.054997,4.267134,Leyweg 295,2545CD
Flower Store,9c5a2f13f7b043205f041c6c,J. Nederlof Bloemen en Planten,52.05602,4.266861,,2545CG
Drugstore,048d8497bfc94ff4652979ac,Haga Apotheek,52.057294,4.266354,274 Leyweg,2545EC
Drugstore,66bebce70ca343897eebf872,Spoedapotheek,52.057294,4.266354,Leyweg 275,2545EC
Clothing Store,46c7f022d6524f854eab54e6,MaRi Fashion,52.059386,4.264129,Leyweg 160 A,2545CX
Retail,0fcbe19ad9164a4a4a9d4291,StreetLegalR Solutions,52.035373,4.26991,Erasmusweg 1947,2542PL
Car Dealership,834d5a3e273041ff534e7211,Nano Cars Autobedrijf,52.035844,4.270754,Erasmusweg 1915,2542PK
Food and Beverage Retail,833c9ca6f7d641121fd8e558,Evergreen Bulldog Energy Drink & Food,52.037377,4.269887,Vrederustlaan 255,2543TB
Automotive Retail,4d1c431ffd7bb60cf29c9ce1,KwikFit,52.040476,4.271569,Wolweversgaarde 92,2542AX
Electronics Store,4cab4b7c76d3a09317e42a6b,Schako Computer Device,52.039917,4.272579,Wolweversgaarde 32-34,2542AX
Food and Beverage Retail,67abcdb3714e4df902a59e90,Lieffering,52.039878,4.271248,Zwaardvegersgaarde 84,2542TG
Butcher,9eb57dd6ac014b60e6a8b8ee,Mounir Islamitische Slagerij,52.039543,4.271715,Zwaardvegersgaarde 102,2542TH
Retail,c3aaf446bd7a49012822d5a7,Mini & Me Jewels,52.03916,4.268669,Droogscheerdersgaarde 57,2542BK
Drugstore,4f1d4bb5e4b0d9f8bb327507,Kruidvat,52.040772,4.26977,"Ambachtsgaarde, 2542 Den Haag",2541GC
Home Appliance Store,760adba69f7a408fa02609b4,YND Trade,52.040868,4.270445,Melis Stokelaan 1796,2541GB
Car Dealership,cbc6e242f24e4ef81fd26502,Pollux Automobielen,52.045628,4.270042,Dedemsvaartweg 531,2545DH
Food and Beverage Retail,4ebc5022991139f61263aee5,Supermarkt Mix Belhuis,52.04833,4.268582,,2545VA
Fruit and Vegetable Store,d40f8da6082c432c3be26594,Erika Groenten,52.047424,4.269268,Hengelolaan 550,2545KC
Retail,dacc9dac0b3a49cc568f3e42,Rox Pharma VOF,52.047266,4.271683,Oosterhesselenstraat 311,2545SW
Retail,84485fae537e43bee231c436,Apotheek Morgenstond C.V.,52.049689,4.270729,Orveltestraat 30,2545KG
Grocery Store / Supermarket,4de506d7d22d2a4ece0256fe,DEN HAAG LEIJWEG DINSDAG Markt Leyweg,52.052442,4.271392,Leyweg,2545VN
Retail,3367f26e135e430ab67a2d43,LOVY luxe kindersieraden,52.051709,4.269759,Zuidlarenstraat 57,2545VP
Furniture and Home Store,d4d7c6c2a0a14a7507425969,Co Furniture,52.053223,4.270533,Meppelweg 208,2545GA
Retail,7f96128c5ee04775e66c8a97,Occasion4You BV,52.054184,4.270233,Vreeswijkstraat 398,2546CJ
Retail,55f7a27f4e5348919ab4e22c,RD ICT Dienstverlening BV,52.054184,4.270233,Vreeswijkstraat 398,2546CJ
Vintage and Thrift Store,f913f0f31de743484c80e852,Kaatweetraad,52.054989,4.270957,Vreeswijkstraat 751,2546AT
Retail,fb7f4901360445974c5c9133,Arif Autoschade,52.055572,4.271877,Vreeswijkstraat 677,2546AS
Home Appliance Store,12cd6e8866c14dde89341bc7,Roest en Bel Haj Ammar VOF,52.056122,4.268337,Benschoplaan 19,2546RG
Hobby Store,4e7f793a7ee6f1394bb49c2a,The Tool Shed,52.057562,4.27141,,2546EG
Shopping Mall,4e9033bed3e3187fc2cd7700,Liddl Almeloplein,52.059106,4.271682,"Almeloplein, Escamp",2546VJ
Clothing Store,befd265ccfc44ae270329062,Tattoo Boy DenHaag,52.059106,4.271682,Werkhovenstraat 94,2546VJ
Grocery Store / Supermarket,4abd6451a4314d1079ebc421,Koppier A,52.058954,4.271317,Lopikplein 17,2546EL
Car Dealership,bf8320530356442b1f70a646,Mazepa Car Wrap,52.059078,4.271489,Lopikplein 21,2546EL
Miscellaneous Store,4efdb46477c885c3339cfaba,Vuurwerk Erasmus,52.038574,4.275838,Erasmusweg,2542TN
Drugstore,44909f782c5f418b3d1cdfd2,SAL Apotheek Den Oever,52.038663,4.273636,Schrijnwerkersgaarde 5,2542TP
Home Appliance Store,be88788cc525490794421b81,Fare Bedtextiel El,52.042612,4.274594,Dedemsvaartweg 933,2545DM
Food and Beverage Retail,e140ab6d7bcf4271022fdd8b,Surihapjes,52.043757,4.272767,Dedemsvaartweg 847,2545DN
Food and Beverage Retail,d147a3fb805541b0c4f11fd6,Seker Snoep,52.042902,4.275923,2e Eeldepad 43,2541JH
Bicycle Store,acad51568ac64a1219b595a8,Dutch Bicycle Trading Group BV,52.042902,4.275923,2e Eeldepad 37,2541JH
Clothing Store,568bd88b498eab1328f8d7d3,Kik Outlet,52.04652,4.276142,Leyweg,2545RD
Convenience Store,53bc0283498e09a2d63f276e,De Noten Bar,52.048136,4.274627,Leyweg 595Z,2545RW
Computers and Electronics Retail,4ff5b99ce4b0cdc6b79ecdb2,Telfort,52.048384,4.276015,Leyweg 633,2545GK
Bookstore,4e6f755088779c905df6d92a,Boekenvoordeel,52.048342,4.276073,Leyweg 631,2545GK
Retail,b8e0cbeab7b24c03b9bad057,S.A. Fashion Center,52.048342,4.276073,Leyweg 657 G,2545GK
Women's Store,a9ab85396d2740bc934dcb93,Sibilla Mode,52.048258,4.27619,Leyweg 643,2545GK
Retail,37680c79ca7b4838b3d7ca0d,Textiel Gomez,52.048258,4.27619,Leyweg 643,2545GK
Cosmetics Store,4e6f748462e1d475e231ee15,Ici Paris Xl,52.04809,4.276771,Leyweg 657N,2545GK
Outlet Mall,5c8bb4fd492822002d9d0ff9,Leyweg,52.048045,4.276722,,2545GK
Optometrist,583073296431e52c191e3076,Pearle Opticiens,52.048133,4.276365,Leyweg 649,2545GK
Eyecare Store,583073296431e52c191e3076,Pearle Opticiens,52.048133,4.276365,Leyweg 649,2545GK
Bookstore,c52414f761ed404ec7878622,AKO in Den Haag,52.048034,4.276733,Leyweg 657H,2545GK
Flower Store,a0d830dcdc2749399ea38cc2,Bloemenshop Present,52.04805,4.276513,Leyweg 657w,2545GK
Butcher,3ed4b78833984e4a31326317,Krygsman Poeliers (H Vd Hoeven),52.048049,4.276482,Leyweg 665,2545GK
Grocery Store / Supermarket,4b9ab2eaf964a52033ce35e3,Jumbo,52.049554,4.275422,Leyweg 922K,2545GV
Electronics Store,4cfbc5cffeec6dcbfb7b4836,GSM-Shop,52.049764,4.274782,Leyweg 918/C,2545GV
Furniture and Home Store,4da99fd48154abafc297a9ad,Blokker,52.049554,4.275422,Leyweg 922/G,2545GV
Discount Store,4e5b7e0e8877c8a76dff5b0f,Big Bazar,52.049387,4.275308,,2545GV
Video Games Store,4e268bffa809510950d83c08,E-Plaza,52.049777,4.275226,,2545GV
Eyecare Store,4f046b617ee579338fc03e6a,Opticus opticiens,52.049874,4.275206,"Leyweg 541, 2545 Den Haag",2545GV
Shopping Mall,5c18d2ebdab4b1002c2bfa35,Aardappelen Op De Markt,52.049271,4.27545,Leyweg,2545GV
Grocery Store / Supermarket,6120f781b0dcfd3277ccb905,Aldi,52.049389,4.275527,Leyweg 920A,2545GV
Women's Store,4e524e4314955fcafdc5cfa4,Miss Etam,52.049065,4.276219,Leyweg 938,2545GV
Clothing Store,4c8f412cd80976b0c5d58775,MS Mode 's-Gravenhage,52.048857,4.276164,Leyweg 954,2545GV
Women's Store,4c8f412cd80976b0c5d58775,MS Mode 's-Gravenhage,52.048857,4.276164,Leyweg 954,2545GV
Retail,4e182d8618a8166f7388dc0a,ESDRAS Vakschoenmakerij,52.048857,4.276164,Leyweg 940/N,2545GV
Shoe Store,bad24924fdce4bdfd01d4b6b,The Athlete's Foot in Den Haag,52.049722,4.274841,Leyweg 918B,2545GV
Women's Store,ffa91516577f4e58881a42e7,ONLY in Den Haag,52.049387,4.275308,Leyweg 920,2545GV
Baby Store,5087c398fbd741fd0fbd9e09,Jeans Centr BV,52.048773,4.27628,Leyweg 940F,2545GV
Pet Supplies Store,5336d606498ee509b159e3e3,Effe Snuffelen,52.04788,4.277411,,2545GV
Clothing Store,553ba6d4498e7eb812f898e8,Wibra Leyweg,52.048005,4.277235,Leyweg 709 K,2545GV
Tobacco Store,4f50eae4e4b041b23c5b7336,Vivant Leyweg,52.048312,4.276923,,2545GV
Optometrist,4d1c6fc02a2a8eec5b5a2c2c,Specsavers,52.048312,4.276923,Leyweg 1032A,2545GV
Eyecare Store,4d1c6fc02a2a8eec5b5a2c2c,Specsavers,52.048312,4.276923,Leyweg 1032A,2545GV
Grocery Store / Supermarket,582e098f7f2549cfd6972a1e,Albert Heijn,52.048312,4.276923,Leyweg 1018,2545GV
Furniture and Home Store,1259a997732f46e1f0bcd767,Lydia Bakker,52.048563,4.276572,Leyweg 988,2545GV
Retail,1f78753a16d8495c7fa4b034,Leyplaza Telecom,52.048633,4.276359,Leyweg 940 M unit 7a,2545GV
Telecommunication Service,502ca875e4b0b49bb4004290,One Mobility Leyweg BV,52.049776,4.275574,Leyweg 920 A,2545JT
Mobile Phone Store,502ca875e4b0b49bb4004290,One Mobility Leyweg BV,52.049776,4.275574,Leyweg 920 A,2545JT
Drugstore,592c36b9db1d811307be0c1c,Apotheek Brusse,52.049682,4.274204,Leyweg 555,2545GG
Fish Market,5b4ddb09c0af57002c2e9553,Simonis,52.050298,4.273104,,2545GG
Pet Supplies Store,4cced9fd063a721ee1819c9a,Pet's Place,52.050393,4.273211,Leyweg 539,2545GG
Food and Beverage Retail,fd3efff7687c48c2e16711f8,Agrifert BV,52.050409,4.272613,Leyweg 533/C,2545GG
Video Store,4bf837b35317a5938c6bff7e,Videoland,52.050603,4.272919,Leyweg 535 C,2545GG
Clothing Store,4d89dd044757721eafe5a969,Zeeman Textielsupers,52.04957,4.274476,Leyweg 559/561,2545GH
Computers and Electronics Retail,4c0b8329009a0f474f31ebbf,Belcompany,52.049109,4.275118,Leyweg 591,2545GH
Optometrist,504e291ffe1e2b5124accbfd,Hans Anders,52.048676,4.275953,Leyweg 595,2545GH
Eyecare Store,504e291ffe1e2b5124accbfd,Hans Anders,52.048676,4.275953,Leyweg 595,2545GH
Mobile Phone Store,4d964212edc941bd798f925c,Phone House,52.048898,4.276105,Leyweg 940 K,2545GH
Retail,fe38652328174b527d4fa40f,Den Haag Leyweg,52.04957,4.274476,Leyweg 559/561,2545GH
Women's Store,c111253b0432477df24b21a2,Brigitte Mode,52.049486,4.274593,Leyweg 575,2545GH
Retail,d125c43dec2149ecfdd4c10b,T for Telecom,52.04894,4.276047,Leyweg 940/G,2545GH
Drugstore,1db97c1aab0e4a2283557515,Drog-Beautystore Kalisvaart,52.048774,4.275933,Leyweg 595C,2545GH
Eyecare Store,9cf1135c619b4b1c265b9acd,Regenboog Verloskundigenpraktijk,52.049963,4.272656,Hengelolaan 191/D,2545JG
Women's Store,88b2d7e1c6a14db7edb7fffb,Bala Boutique,52.049574,4.27239,Hengelolaan 195B,2545JH
Drugstore,29e4afdc45e546534b916061,Kraamzorg My Baby,52.049574,4.27239,Hengelolaan 195-C,2545JH
Clothing Store,216ffad933874513b6ac6e24,Rainbow Fashion,52.048635,4.275664,Leyweg 611,2545GJ
Grocery Store / Supermarket,53492f4d498eaa5f2c702907,Supermarkt Leyweg,52.05099,4.27388,Leyweg 872,2545GS
Grocery Store / Supermarket,8af3080e79fa48e23a93ef47,Alpha Basismarkt,52.05099,4.27388,Leyweg 872,2545GS
Women's Store,a5140f618f1d4624d45a6e8a,R Handel,52.052185,4.27487,Hellendoornstraat 98,2541AT
Food and Beverage Retail,97275993f6b64e249376a26d,Marché,52.052185,4.27487,Hellendoornstraat 114,2541AT
Grocery Store / Supermarket,fe0b03cab99e4ab3f0faaf12,Buurtsupermarkt Nour,52.051835,4.275936,Holtenstraat 2,2541XN
Butcher,ba6529ebacfd4fb272be4f1e,Slagerij El Mohsinin,52.05189,4.275974,Holtenstraat 2,2541XN
Baby Store,f4cd45f997c44c2d8e69971a,Babycenter,52.05077,4.272686,Leyweg 523 A,2545GD
Retail,b5519bfdaa9d4f4433b2874c,Jayesh Malaha,52.052714,4.274362,Hellendoornstraat 22,2541AS
Home Appliance Store,f1c1fb45456b4c0778a06992,Hout Ambulante Markthandel,52.054314,4.274324,Maartensdijklaan 140,2541XT
Food and Beverage Retail,4cb2aa5307004663afa81f68,Party Service Le Vert,52.052619,4.27334,Wijhestraat 4,2541AM
Food and Beverage Retail,91df6096ec5d49531344be4a,Saérah Catering,52.054067,4.272937,Raaltestraat 14,2541AD
Sporting Goods Retail,4cf7a9e3d3a8a1cd17ded743,Dartsworld,52.055567,4.273962,Almeloplein 70,2533AC
Pet Supplies Store,4ec0fe9b5c5c3d470d3d3024,Dierenspeciaalzaak Moerwijk,52.055775,4.274366,Almeloplein 36,2533AC
Bicycle Store,4e5657a1b0fbb294aaa6b515,Badoux Fietsen,52.055706,4.274231,Almeloplein 54,2533AC
Drugstore,4e68b293d4c0c57090689bc1,Alpha Apotheek,52.056108,4.274941,Almeloplein 8-9,2533AA
Furniture and Home Store,4c91c5f07f3b8cfa12a89f1e,GeHaVe,52.056107,4.275289,Ryksstrwg 33,2533AA
Home Appliance Store,1ce97b7fb353400a4464f315,Akkoc Markthandel,52.056163,4.274979,Almeloplein 4,2533AA
Retail,ea425df695e64cadba85c6dd,EnginEars 002 B.V.,52.056177,4.275075,Almeloplein 1,2533AA
Grocery Store / Supermarket,57372085498ee39ba9744d0e,Almeloplein,52.055897,4.27518,,2533AD
Butcher,4c91c68a238c6dcb13f8c255,Man Slagerij De,52.05537,4.275394,Almeloplein 69,2533AD
Grocery Store / Supermarket,36c96331a95e45ffbc22d3d7,Appeltje/Peertje Grnt/fruith,52.055343,4.274853,Almeloplein 77,2533AD
Liquor Store,e2007d20ea3e4d3ea3e46069,Pronk Slijterij Wijnhandel E,52.05512,4.275049,Almeloplein 66,2533AD
Grocery Store / Supermarket,4bac6ec0f964a520ddf43ae3,Lidl,52.055439,4.275528,Almeloplein 73-75,2541XB
Butcher,6f2cd05100f746d9053776aa,Slagerij Cassablanca,52.055188,4.275531,Almeloplein 69,2541XB
Electronics Store,500920efe4b0639ac2982310,MediaGek,52.055653,4.272803,Vreeswijkstraat 228,2546CD
Grocery Store / Supermarket,5b213e15446ea6002c304b97,Supermarkt Dilux,52.055653,4.272803,Vreeswijkstraat 238,2546CD
Home Appliance Store,309cdd8a733f48cd903680e0,Cheap City,52.05564,4.272707,Vreeswijkstraat 236,2546CD
Flower Store,4c91c3c457e5b60c4576631c,Bloemenhuis Lentefleur,52.056233,4.275113,Loevesteinlaan 27,2533AE
Butcher,4c57dd316201e21e1a217c6f,Slagerij de Stede,52.057139,4.27408,Driebergenstraat 353,2546BK
Meat and Seafood Store,4c57dd316201e21e1a217c6f,Slagerij de Stede,52.057139,4.27408,Driebergenstraat 353,2546BK
Hardware Store,4c8e7dbdd68c6dcb57bafca1,Sudmeyer IJzerhandel,52.056708,4.273872,Vreeswijkstraat 537,2546AN
Tobacco Store,4e202f3318a88345f03d5e70,Driehoek Kantoorboekhandel De,52.05725,4.274155,Driebergenstraat 321,2546BJ
Tobacco Store,e0347b2708aa46fedb386409,Totaal Gemak in Den Haag,52.057306,4.274193,Driebergenstraat 321,2546BJ
Automotive Retail,4e855c36775bf6883238b8ff,Autobedrijf van Batenburg,52.05803,4.27608,,2546AK
Food and Beverage Retail,4b9f105310544b4335a305c3,Kingdom Merchandise and Publications,52.05788,4.272237,Maarsbergenstraat 149,2546SP
Jewelry Store,4c921b54b641236a3ae78679,Juwelier C.M. Ros & Zoon B.V.,52.059686,4.273645,Driebergenstraat 143,2546BC
Retail,55f2a9bd498e717e5bb115de,Brocanterie Maria,52.059438,4.272257,Werkhovenstraat 82,2546VD
Fruit and Vegetable Store,66411679f40c4bd38e6e85ff,Robbinson Groente- en Fruithandel,52.059796,4.274068,Driebergenstraat 126,2546BN
Clothing Store,991b3c0e5f1a4eea94e1e565,Bijl M J,52.060699,4.274772,Leersumstraat 8,2546TK
Food and Beverage Retail,e99cc034feb34d338c8b9f60,Tica Groothandel,52.060522,4.272824,Maarsbergenstraat 19,2546SL
Shoe Store,4fe5cb3ae4b0c7d6baf761da,Only one,52.042523,4.27906,,2541RT
Electronics Store,4e4d25cf52b1075a63938361,Block,52.042518,4.276497,,2541JJ
Flower Store,38b9f559755242e3acc636de,Pracownia Flower Specialiste,52.041271,4.277158,Dedemsvaartweg 1185,2545DR
Pet Supplies Store,4e568c1852b12ddfc1e29e3b,Seaflower,52.043219,4.277097,,2541HR
Pet Grooming Service,4db6ac1b1e7248d135cce4a9,Cliff's Dog Shop,52.043345,4.276922,Leggelostraat 59,2541JD
Pet Supplies Store,4db6ac1b1e7248d135cce4a9,Cliff's Dog Shop,52.043345,4.276922,Leggelostraat 59,2541JD
Food and Beverage Retail,4e5ce364ae60839ea2dcb83f,Bab Mansour,52.045802,4.279732,Leyweg 797,2545HA
Fish Market,fbe7bb37ecb449a20f169035,Vishandel Rincon,52.045454,4.279755,Leyweg 805,2545HA
Bicycle Store,a2aa38ae59ff418caa1a67ab,Viszaak Santon,52.044464,4.280558,Leyweg 831,2545HA
Food and Beverage Retail,4dc930ded164033c5739ef85,Buurtsuper De Ley,52.044783,4.281037,Leyweg 1278,2545HA
Shoe Store,4e5256fb88775123c0e73b65,vanHaren in Den Haag,52.046446,4.27791,Leyweg 707J,2545GM
Electronics Store,4c6aa557897b1b8d7e44b217,Ink-clinic,52.046316,4.279823,Leyweg 5397,2545GM
Baby Store,524e849c68984641f7381f35,Action in Den Haag,52.046321,4.277737,Leyweg 707M,2545GM
Department Store,528f30de498e10da61cccff2,Action,52.047086,4.277825,Leyweg 707,2545GM
Discount Store,528f30de498e10da61cccff2,Action,52.047086,4.277825,Leyweg 707,2545GM
Department Store,4c4edac61b8e1b8d7c86d627,HEMA,52.047198,4.277554,Leyweg 705,2545GM
Shopping Mall,4b76cc42f964a520e25f2ee3,Winkelcentrum Leyweg,52.046794,4.277886,Leyweg 789,2545GM
Drugstore,4c92221e57e5b60ca743661c,Kruidvat,52.04703,4.277787,Leyweg 709m,2545GM
Grocery Store / Supermarket,4c8941830a28b7130bc156d7,Hoogvliet,52.046975,4.277749,Leyweg 709/r,2545GM
Department Store,4f2d3485e4b06203564785ae,Big Bazar,52.047253,4.277591,Leyweg 707/N,2545GM
Discount Store,4f2d3485e4b06203564785ae,Big Bazar,52.047253,4.277591,Leyweg 707/N,2545GM
Arts and Crafts Store,4da9798543a1128196ddb541,Lenta,52.047155,4.277959,Leyweg 721,2545GM
Clothing Store,4db29b836e817f90df1fd62e,Nelson Schoenen BV,52.047198,4.277554,Leyweg 709/G,2545GM
Shoe Store,4db29b836e817f90df1fd62e,Nelson Schoenen BV,52.047198,4.277554,Leyweg 709/G,2545GM
Miscellaneous Store,50e801ade4b0665493549d3e,Xenos,52.046869,4.278404,,2545GM
Clothing Store,4c6a7cb4d0bdc9b60d89a80b,C&A,52.046682,4.278158,Leyweg 709 Y,2545GM
Women's Store,23319e1c21ea4621fe5a8536,Lady Style Ltd,52.047211,4.27765,Leyweg 707 G,2545GM
Liquor Store,823ad25f02954ad1c4f0e91f,Mitra Slijterij,52.047323,4.277378,Leyweg 709/U,2545GM
Tobacco Store,9cb39a445caf49c89ebd2497,Zigger Sportblok,52.047365,4.27732,Leyweg 707,2545GM
Women's Store,c6172123e0d94e55a7f5bdb6,Zapp Evolution,52.047365,4.27732,Leyweg 707,2545GM
Women's Store,86fd5e6562dd42910ee741a2,Esprit,52.047365,4.27732,Leyweg 709/F,2545GM
Clothing Store,c7a184cbad8943a8b6137b32,Stone Den Haag The,52.047045,4.277536,Leyweg 707/D,2545GM
Women's Store,c7a184cbad8943a8b6137b32,Stone Den Haag The,52.047045,4.277536,Leyweg 707/D,2545GM
Liquor Store,f00b49f697114b8243d3324a,Mitra in Den Haag,52.046807,4.277983,Leyweg 709u,2545GM
Baby Store,403364050d0f4c047cbc0041,Esprit in Den Haag,52.046807,4.277983,Leyweg 709E,2545GM
Furniture and Home Store,54cf24da498ed407cd601aee,Fred van Rijn Zonwering & Woninginrichting,52.045744,4.280389,Leyweg 1150 1152,2545HH
Retail,513c8a9bf48848063bc20cef,Van Rijn Woonstyle,52.045744,4.280389,Leyweg 1150,2545HH
Clothing Store,a5b4f307281a4ae1bba72d6a,Get Well Jeans,52.045744,4.280389,Leyweg 1148,2545HH
Tobacco Store,d33398f399254565ce81326f,Tabak- en Lectuurshop Leijweg,52.045493,4.280739,Leyweg 1172,2545HH
Liquor Store,21745aba1dda479e24700122,Handel de Wijn en Bierboutique,52.045482,4.2796,Leyweg 803-805,2541EL
Furniture and Home Store,3483673204704cedd43a7578,Blokker,52.045842,4.280369,Leyweg 986 - 988,2541EH
Telecommunication Service,4df763cfd22df20cc2d7370e,KPN Winkel,52.048228,4.277387,Leyweg 1032B,2545GX
Mobile Phone Store,4df763cfd22df20cc2d7370e,KPN Winkel,52.048228,4.277387,Leyweg 1032B,2545GX
Lingerie Store,567edf5823824789078528b1,Hunkemöller,52.047879,4.277758,Tubbergenstraat 131,2545GX
Lingerie Store,48969ae43353474af195af54,Hunkemöller in Den Haag,52.047879,4.277758,Leyweg 1076,2545GX
Home Appliance Store,07de4f3d1a2547209efc5468,Handelsonderneming R.& P.Stoppelenburg v.o.f.,52.048005,4.277583,Leyweg 1062,2545GX
Food and Beverage Retail,8fa3bc91b1684149188d25bb,Mina's Kukru,52.048047,4.277524,Leyweg 1052,2545GX
Retail,5ae7fb973deb489071c6fcf6,Hans Textiel Bv,52.047616,4.276969,Leyweg 683/685,2545GL
Butcher,a8dfce26503f40d8c26cf55a,Sijde Slagerij A vd,52.0477,4.276853,Leyweg 681,2545GL
Fish Market,324c0071caf54d0ad96031ad,Perle La,52.047784,4.276736,Leyweg 681,2545GL
Bridal Store,e5a9cbe74acd44feb913c738,Prom Time Mix,52.047784,4.276736,Leyweg 683,2545GL
Drugstore,1a1140220f434c307bfd1a7a,Etos in Den Haag,52.048521,4.276978,Leyweg 1018,2545GW
Furniture and Home Store,578e1d7a498efbcb0e0a0b38,Woontextiel Roobol,52.048669,4.27694,Leyweg,2545GW
Bookstore,c1a679cb85cd474794492b79,Prijsmepper,52.048786,4.276724,Leyweg 970 -972,2545GW
Bicycle Store,4e95f18761af864d7d198689,Ado Bike Leyweg,52.049433,4.279864,,2541VK
Miscellaneous Store,4c922151b641236ac11f8779,Prijsmepper Outlet,52.049342,4.276757,,2545NN
Grocery Store / Supermarket,5c1f57e32619ee002c4b3d5e,Baqqal Supermarkt,52.0493,4.276815,,2545NN
Meat and Seafood Store,5c1f57e32619ee002c4b3d5e,Baqqal Supermarkt,52.0493,4.276815,,2545NN
Furniture and Home Store,84f37cad25eb4f8fbc430ada,Pasado Brocante,52.049644,4.278529,Maartensdijklaan 625,2541VD
Home Appliance Store,82a7c91a73334f7e4e82cc98,Imexniar,52.049813,4.277601,Fluitenbergstraat 12,2545NL
Automotive Retail,4dc0f35c45dd472e9b6c8f62,Vathauer & Dochters,52.051871,4.278311,Kerketuinenweg 6,2545JP
Clothing Store,af9cbe2092e74521458ef25f,4U Mode,52.051857,4.278214,Hengelolaan 54,2545JP
Drugstore,67c2e71ab7b5490893bab4ef,Independer Zorgapotheek,52.050907,4.280349,Loevesteinlaan 355,2533AM
Shopping Mall,36b8228538e64fe01bd8c86b,Leyweg,52.042181,4.281086,Leyweg 765,2541PS
Tobacco Store,326134eb22c24ccc34f1c199,Merlijn Tabak en Lektuur,52.043668,4.281668,Steenwijklaan 152,2541RP
Drugstore,4c78d8cf0bf4479ab6e2f02d,Global Pharma Supply Partner,52.042901,4.282622,Dwingelostraat 84,2541RE
Food and Beverage Retail,4d2c9930b818a35d8ce0b98a,Passar Baroe,52.0452,4.281148,Leyweg 1188-1190,2545HJ
Food and Beverage Retail,f4a92ac198d3419a4b41fadc,Boulakhrif Vleesbewerking,52.045909,4.281546,Zwartsluisstraat 8,2541ST
Sporting Goods Retail,807891e31611444bc849794e,Sporteon Den Haag,52.045033,4.281382,Leyweg 1242,2545HK
Grocery Store / Supermarket,39c8470c567342401e0a35eb,Firdous Buurtwinkel,52.044851,4.281519,Leyweg 1278,2545HK
Retail,0978d62d939f4e430fbc832d,An-Nisaa Winkel,52.044809,4.281577,Leyweg 1260,2545HK
Bookstore,94533e49db3c405ceaa2045a,Antique Arrow,52.047437,4.282764,Melis Stokelaan 1014,2541ED
Car Dealership,ba1092662821481a8349e0ab,Ugur Auto's,52.047977,4.283742,Melis Stokelaan 928,2541EB
Garden Center,bb59f7bd68574fa0d66c8d03,Bloemenkiosk De Groene Zwaan,52.049134,4.282706,Loevesteinlaan 471,2533AP
Flower Store,677f58d2f87d457602d47fe3,Renate's Stekkie,52.048827,4.283366,Loevesteinlaan 515,2545NZ
Hobby Store,4def2b15ae609ae4fa41f9cd,Medaillehuis Oudshoorn,52.060769,4.28126,Vreeswijkstraat 3/5,2546AA
Gift Store,4d7107fe68276ea82a459090,Medaillehuis,52.061034,4.28162,Vreeswijkstraat 3-5,2533SW
Flower Store,27708040565d44180ffb94ae,Ada Kiosk,52.043728,4.285972,Erasmusweg 1179/C,2542PV
Bicycle Store,4f0c2016e5e820702015eef3,De Roode Scooters,52.046423,4.287988,Loevesteinlaan 464-472,2533XN
Baby Store,9d64d03bc0fa494f5adccf29,DRD Kids Fashion,52.047291,4.285623,Loevesteinlaan 605,2533BD
Home Appliance Store,b2ad7f2755f1427586129458,Habib Shirzai,52.047119,4.287942,De Lannoystraat 158,2533XX
Retail,4a970d5308a04d98edf7b0cd,Erdie Car Cleaning,52.05004,4.288372,Roemer Visscherstraat 325,2533VL
Automotive Retail,4dea0470b0fb8293f7c8c400,Auto Loevesteinlaan,52.045221,4.290473,,2532EN
Food and Beverage Retail,5ef337516350400007d32e37,AH Delivering Home,52.045879,4.288748,De Lannoystraat,2533CG
Clothing Store,34f9fe6720084b45e5af091b,Selecta Outlet,52.045386,4.291283,Erasmusweg 742,2532EM
Gift Store,aaf5af224ab5486058c07ac1,CadeauIdee,52.045815,4.292185,Erasmusweg 684,2532EL
Farmers' Market,507d5696e4b074e852e8bd59,Groenteboer,52.047653,4.291701,,2533TH
Clothing Store,4decf39545dd3993a8c9effb,Wibra Betje Wolfstraat,52.048085,4.291561,,2533HL
Pet Supplies Store,50c30d2de4b070f4c1dd3d54,Gaya,52.048182,4.291541,Betje Wolffstraat,2533HL
Bicycle Store,4d37f3979516236a9b9c9151,Bert's Wielershop,52.048224,4.291482,Betje Wolffstraat 215-223,2533HL
Shopping Plaza,5bc9e0c5e1f228002c3fa5f8,Betje Wolfstraat,52.048324,4.291636,Betje Wolfstraat,2533HT
Cosmetics Store,4faf9fdde4b0ec82898efef2,Allure Hair & Beauty,52.048404,4.29204,Betje Wolfstraat,2533HT
Retail,e502ce02588f4658c53b5da6,Bakwinkel Betje Wolff,52.048432,4.291885,Betje Wolffstraat 160,2533HT
Grocery Store / Supermarket,4b9ab39bf964a5206fce35e3,Albert Heijn,52.049004,4.290971,Betje Wolffstraat 134,2533HT
Office Supply Store,4def81bcd164e99c7b3c7463,Primera in Den Haag,52.048976,4.291126,Betje Wolffstraat 132,2533HT
Drugstore,5048b4c2e4b0690ac75401dd,Etos,52.048892,4.291243,Betje Wolffstraat 136,2533HT
Drugstore,4dbec44f6e810768bf94d958,Thuiszorgwinkel Den Haag,52.048655,4.29169,,2533HT
Eyecare Store,02c4b64b4aac4dca836b4850,Vegro Thuiszorgwinkel Den Haag,52.048599,4.291652,Betje Wolffstraat 140,2533HT
Grocery Store / Supermarket,c60b99c9383042083c2e0d77,MIS Versmarkt V.O.F.,52.048139,4.292294,Betje Wolffstraat 188 -196,2533HV
Retail,f41f18bac3bd4ac5e02cf085,Ram's Tropische Winkel,52.048097,4.292353,Betje Wolffstraat 202,2533HV
Drugstore,66506ebbd71f4dba7ceda208,Drogisterij De Gaperbol,52.048194,4.292332,Betje Wolffstraat 188,2533HV
Butcher,1581e64fa2b24f028757e62b,Islam Slagerij El Madina,52.047428,4.292592,Betje Wolffstraat 303,2533HN
Grocery Store / Supermarket,d45eea38cccf47e1eb101ae4,Super Setareh,52.047428,4.292592,Betje Wolffstraat 311,2533HN
Drugstore,4c6e85cde6b7b1f717baac8e,Apotheek Betje Wolff,52.049534,4.290463,Rhijnvis Feithlaan 45,2533GA
Flea Market,50ed26afe4b034e53d5f89a9,Betje Wolffstraat,52.048965,4.289987,Rhijnvis Feithlaan,2533GB
Food and Beverage Retail,93d994bcfab94cbfb2acc36e,Cold & Tasty,52.048643,4.290898,Betje Wolffstraat 167,2533HK
Flower Store,523f05d4498ec597e4636e8d,Bloemenkiosk Patricia,52.051873,4.289974,,2533SP
Vintage and Thrift Store,a83cf582e82b4da39d737f22,TBRB Handelsmarkt,52.050719,4.28962,Roemer Visscherstraat 273,2533VK
Clothing Store,a4d755b4d44849be16a90af4,Anna Grigorian Couture,52.050893,4.292611,Aagje Dekenlaan 47/K,2533SG
Flower Store,4d9aec96345542f230153421,Anita's Bloem- & Plantenkiosk,52.043543,4.293852,Lichtenbergweg 15TO,2532AA
Jewelry Store,d93dc56e48f6497bf64bcfc1,Beauty of Minerals,52.044336,4.294133,Beverweerdstraat 136,2532XN
Food and Beverage Retail,20c6ff249ee54a3b2ad68ca6,Fresca Italia,52.044641,4.294515,Sandenburgstraat 113,2532VS
Flower Store,4df384f2aeb7170aa2f1345e,Bloemenkiosk Jeffrey,52.047524,4.293267,Erasmusweg 879,2532RP
Shoe Store,ffd8f80a1b5646c62761a509,Rachid's Leren Schoenen,52.047857,4.293842,Erasmusweg 843,2532RP
Grocery Store / Supermarket,57542e0a498e0bd32278bac6,Super Star - Perzische Supermarket,52.047817,4.292858,,2533HW
Home Appliance Store,43f701de1783428e15654f68,Vestone,52.047713,4.295659,Erasmusweg 426,2532EE
Fashion Accessories Store,d74bbec8cfdf492caebd8663,GSM Maddox,52.047032,4.295454,Nettelhorststraat 67,2532BN
Clothing Store,612975c3d8cc4ef4376cd181,Dilusa,52.049773,4.295327,Aagje Dekenlaan 238,2533SN
Retail,9a6ba3da7d8c4d43ed20bc4f,Crazy Monkey,52.048799,4.295531,Aagje Dekenlaan 65,2533SH
Car Dealership,9c63656d661941d1f4db8e94,Auto-expo,52.050313,4.296653,Jan Vosstraat 86,2533TZ
Furniture and Home Store,5517fbd773de444c74b1e028,Rif Design,52.051348,4.294402,Jan Luykenlaan 159,2533JN
Butcher,7420e0f0cf9848265bfc0fca,Haagse Vleeshal,52.051678,4.29602,Jan Luykenlaan 84,2533JS
Grocery Store / Supermarket,7db3ff6067f048ae44e78f19,Supermarkt & Slijterij Ferdi,52.051747,4.296154,Jan Luykenlaan 84,2533JS
Video Store,206801622d47465b43dfa426,Batens A J F,52.051955,4.296558,Van Baerlestraat 81,2533JS
Food and Beverage Retail,85c40b4685194a1aa476301a,Flavors Foods,52.05225,4.295454,Hoogvlietstraat 60,2533LB
Retail,0f682f4bf22b447a0ae6ef36,Bakkerij Moerwijk,52.052206,4.296207,Jan Luykenlaan 49,2533JL
Clothing Store,3b7963e1cab24763e0a06cab,Aydin Textiel M,52.053321,4.295577,Van Baerlestraat 9,2533LH
Clothing Store,d7e3f4009b53474af0af5fc1,Esra Europe,52.052932,4.295311,Rotgansstraat 22,2533LE
Fruit and Vegetable Store,e7d03395c96847189d919b4a,Hillali Groente en Fruit,52.052835,4.294984,Rotgansstraat 27,2533LC
Car Dealership,804773e5aadf4654d0a04aee,Africa Cars Export,52.053409,4.293722,Tesselschadelaan 2,2533KV
Car Dealership,5f0e53e8c12644a25c2c0b0c,W. & P. Chevy van Parts,52.052471,4.295953,Hoogvlietstraat 20,2533LA
Furniture and Home Store,b8e62d0453084aa1fbe67ad4,Home2Love,52.05595,4.296069,Moerweg 298,2531BG
Retail,474237aedc804fce0d410708,Ates M,52.056228,4.295911,Moerweg 266,2531BE
Bicycle Store,4c11210cce640f47310d3b52,Bike-Zone,52.051606,4.296928,Van Baerlestraat 87-89,2533LK
Health and Medicine,50bab6d3d9ce4a6c0c743890,Erasmus,52.051132,4.297474,Van Baerlestraat 131,2533LK
Drugstore,50bab6d3d9ce4a6c0c743890,Erasmus,52.051132,4.297474,Van Baerlestraat 131,2533LK
Clothing Store,b037a1bb33fb49eeb19d2468,D'Iva Media,52.051216,4.297358,Van Baerlestraat 125,2533LK
Drugstore,7f926338ad18487abfa440c3,Hobbemaplein BV Apotheek,52.051417,4.300542,Erasmusweg 471,2532CN
Drugstore,34a97c5e6da345b7747b8684,Mondhygiënepraktijk Smile & Shine,52.051473,4.30058,Erasmusweg 471,2532CN
Retail,13eb65cf2a814ada98fc8558,Body Class,52.051611,4.300849,Erasmusweg 445,2532CN
Fashion Accessories Store,874936fa82e24373084378da,NB Fashion Accessories,52.051625,4.300945,Erasmusweg 445,2532CN
Home Appliance Store,c341c3802b3b4d0e33601704,Westdijk Radio,52.052329,4.297422,Jan Luykenlaan 2,2533JR
Tobacco Store,1ce64093c86744c99f198de4,Bolle Sigaar,52.052315,4.297326,Jan Luykenlaan 8,2533JR
Grocery Store / Supermarket,4820c0f798af49d7c6277a5a,Super Market Tugbam,52.052121,4.297019,Jan Luykenlaan 22,2533JR
Food and Beverage Retail,d7774f2431f84c3a01559e51,070 Snoep & Speelgoed,52.052107,4.296923,Jan Luykenlaan 40,2533JR
Pet Supplies Store,4e05efea2271dfa46ba558bb,Dierenspeciaalzaak Moerwijk,52.052511,4.296938,Jan Luykenlaan 35,2533JK
Clothing Store,00a45d218de343ea53fb8169,Izari BV,52.052649,4.297206,Jan Luykenlaan 1,2533JK
Butcher,1931c918d6544997580a0e75,Ikan Islamitische Slagerij,52.052511,4.296938,Jan Luykenlaan 21,2533JK
Retail,744eeec4b4064cf5ee3d77b7,Ciprian Telecom,52.052938,4.298883,Van Maerlantlaan 144,2531EV
Retail,289a52a9b50b4924754bae22,Interstar Trading B.V.,52.055528,4.297696,Vier Heemskinderenstraat 228,2531CH
Food and Beverage Retail,f29bdc8ee8534ba5084fc0b2,Shekianah,52.05763,4.297305,Troelstrakade 231,2531AE
Electronics Store,4ec93debf79041351ece8822,Jobs,52.048379,4.302468,,2531PJ
Car Dealership,f2f5d4d8d1144a401d41bb59,Waja-Auto,52.049213,4.303038,Hackfortstraat 93,2531JH
Clothing Store,9f9a54f445234510c7680bfd,SKG Damesmode,52.049801,4.301525,Middachtenweg 92,2531PD
Shopping Mall,5145d8a2e4b0b6e4125f71e3,Coop Supermarkt,52.051408,4.304365,Heeswijkplein,2531HV
Grocery Store / Supermarket,4c6aa9b8897b1b8d5450b217,Coop Den Haag,52.051407,4.304713,Heeswijkplein 200,2531HV
Grocery Store / Supermarket,a789d3ea387f40ee1ea74b49,C1000,52.051393,4.304617,Heeswijkplein 200,2531HV
Retail,fc2f6326f620404b20f49555,Coop & F&S B.V.,52.051449,4.304655,Heeswijkplein 200,2531HV
Bicycle Store,7befbf361d3d47ab40d618eb,Happy Bike,52.051268,4.304792,Heeswijkplein 132,2531HV
Pet Grooming Service,4e0ad67fae60e479ad9ae3e0,Chique du Friemel,52.050628,4.304529,Heeswijkplein 54,2531HD
Pet Supplies Store,4e0ad67fae60e479ad9ae3e0,Chique du Friemel,52.050628,4.304529,Heeswijkplein 54,2531HD
Pet Supplies Store,58064ba2d67c8ab131c891c8,Chique du Friemel Honden en Katten Trimsalon,52.050586,4.304587,Heeswijkplein 54,2531HD
Tobacco Store,5e2848ca6df3415402d5e557,P Wijngaards,52.051089,4.303886,Heeswijkplein 9,2531HC
Butcher,68dd7956947545b2b3f8237a,Islamitsche Slagerij Nasser,52.051103,4.303983,Heeswijkplein 10,2531HC
Meat and Seafood Store,e04971d897b9415616c152c7,Zagros Seafood,52.051047,4.303945,Heeswijkplein 10,2531HC
Women's Store,bdd61c1d44654e39a63f3714,Suleman International,52.050674,4.30308,Verwoldestraat 10,2531HR
Retail,b65e708dbf5d4a47dfa0c40c,Alex Market,52.053612,4.302217,Anna Bijnslaan 40,2531TV
Clothing Store,f061e60b930c4f7ab59a5ffc,Carti label,52.052996,4.303537,Erasmusweg 241,2532CJ
Retail,59fd3a92794e40b3c4e22bd1,Michael MDB,52.055696,4.303121,Rederijkerstraat 81,2531VH
Bridal Store,78a7bdb249ea4593234a3b01,Sensira Bridal Couture,52.056029,4.303696,Heeswijkplein 122,2531AP
Bicycle Store,8435b4142a7b46c5173bb5f2,DS Scooters,52.056675,4.301178,Troelstrakade 497,2531AM
Electronics Store,4ec41d2e6da117f8e58384e7,Apple Jobs,52.048275,4.305269,,2531HP
Drugstore,4e4bdef7d4c0ae552d8775bb,Vichy,52.048414,4.30519,Heeswijkplein 70,2531HP
Tobacco Store,4e4bdfed52b1119aaa72f296,Tabakshop Heeswijkplein,52.049137,4.305337,Heeswijkplein 10,2531PN
Car Dealership,ce958c2cac344089f9544d7e,HI Autohandel,52.049911,4.307607,Ulenpasstraat 27,2531PL
Drugstore,4f562301e4b06d72390008d0,Adelheid Apotheek,52.050529,4.305244,Heeswijkplein 68,2531HE
Retail,7b484035593b4b0a09b2e107,Interstar Trading BV,52.051126,4.305914,Heeswijkplein 105,2531HG
Vintage and Thrift Store,da733693d9c14ff75707dfaa,Kringloop Moerwijk,52.051475,4.305543,Heeswijkplein 132,2531HH
Car Dealership,d6763c25458e48ba61e6c274,Ganda Export Cars,52.05231,4.305418,Schoonhetenstraat 43,2531RK
Automotive Retail,517e51fce4b0a48296a35841,Garage De Haan,52.053893,4.306675,,2532CP
Car Dealership,471c006559b243e440db141b,Ultimatez Import & Export,52.05651,4.306376,Willem Dreespark 65,2531SB
